[
  {
    "id": "poi_wat_arun",
    "nameTH": "วัดอรุณราชวราราม",
    "nameEN": "Wat Arun",
    "area": "Bangkok",
    "rating": 4.8,
    "tags": ["Temple", "River"],
    "minutes": 90,
    "lat": 13.7437,
    "lng": 100.488,
    "image": "wat_arun"
  },
  {
    "id": "poi_chatuchak",
    "nameTH": "ตลาดนัดจตุจักร",
    "nameEN": "Chatuchak Market",
    "area": "Bangkok",
    "rating": 4.6,
    "tags": ["Market", "Food"],
    "minutes": 180,
    "lat": 13.7994,
    "lng": 100.5507,
    "image": "chatuchak"
  },
  {
    "id": "poi_chinatown",
    "nameTH": "เยาวราช",
    "nameEN": "Yaowarat Chinatown",
    "area": "Bangkok",
    "rating": 4.7,
    "tags": ["Food", "Night"],
    "minutes": 120,
    "lat": 13.7394,
    "lng": 100.5107,
    "image": "chinatown"
  },
  {
    "id": "poi_asia_tique",
    "nameTH": "เอเชียทีค เดอะ ริเวอร์ฟร้อนท์",
    "nameEN": "Asiatique The Riverfront",
    "area": "Bangkok",
    "rating": 4.4,
    "tags": ["Night", "Market"],
    "minutes": 150,
    "lat": 13.7042,
    "lng": 100.5105,
    "image": "asiatique"
  },
  {
    "id": "poi_bua_tong",
    "nameTH": "น้ำตกบัวตอง",
    "nameEN": "Bua Tong Sticky Waterfall",
    "area": "Chiang Mai",
    "rating": 4.9,
    "tags": ["Nature"],
    "minutes": 150,
    "lat": 19.0675,
    "lng": 99.1915,
    "image": "bua_tong"
  },
  {
    "id": "poi_doi_suthep",
    "nameTH": "ดอยสุเทพ",
    "nameEN": "Doi Suthep",
    "area": "Chiang Mai",
    "rating": 4.8,
    "tags": ["Temple", "Nature"],
    "minutes": 160,
    "lat": 18.8045,
    "lng": 98.9215,
    "image": "doi_suthep"
  },
  {
    "id": "poi_nimmanhaemin",
    "nameTH": "ถนนนิมมานเหมินท์",
    "nameEN": "Nimmanhaemin Road",
    "area": "Chiang Mai",
    "rating": 4.4,
    "tags": ["Food", "Night"],
    "minutes": 90,
    "lat": 18.8021,
    "lng": 98.9677,
    "image": "nimman"
  },
  {
    "id": "poi_mae_kampong",
    "nameTH": "บ้านแม่กำปอง",
    "nameEN": "Mae Kampong Village",
    "area": "Chiang Mai",
    "rating": 4.7,
    "tags": ["Nature", "Culture"],
    "minutes": 240,
    "lat": 18.8666,
    "lng": 99.3687,
    "image": "mae_kampong"
  },
  {
    "id": "poi_patong",
    "nameTH": "หาดป่าตอง",
    "nameEN": "Patong Beach",
    "area": "Phuket",
    "rating": 4.3,
    "tags": ["Night", "Beach"],
    "minutes": 180,
    "lat": 7.8966,
    "lng": 98.2956,
    "image": "patong"
  },
  {
    "id": "poi_phi_phi",
    "nameTH": "หมู่เกาะพีพี",
    "nameEN": "Phi Phi Islands",
    "area": "Phuket",
    "rating": 4.9,
    "tags": ["Nature", "Snorkel"],
    "minutes": 480,
    "lat": 7.7407,
    "lng": 98.7784,
    "image": "phi_phi"
  },
  {
    "id": "poi_old_phuket",
    "nameTH": "เมืองเก่าภูเก็ต",
    "nameEN": "Old Phuket Town",
    "area": "Phuket",
    "rating": 4.5,
    "tags": ["Food", "Market"],
    "minutes": 150,
    "lat": 7.884,
    "lng": 98.3852,
    "image": "old_phuket"
  },
  {
    "id": "poi_karon",
    "nameTH": "จุดชมวิวกะรน",
    "nameEN": "Karon Viewpoint",
    "area": "Phuket",
    "rating": 4.6,
    "tags": ["Nature", "View"],
    "minutes": 90,
    "lat": 7.8058,
    "lng": 98.309,
    "image": "karon"
  }
]
